[{"OBJECT_NAME":"STARLINK-30923","OBJECT_ID":"2023-178H","EPOCH":"2026-03-09T23:26:17.608416","MEAN_MOTION":15.30193411,"ECCENTRICITY":0.00012918,"INCLINATION":53.1616,"RA_OF_ASC_NODE":359.8171,"ARG_OF_PERICENTER":92.4141,"MEAN_ANOMALY":267.7007,"EPHEMERIS_TYPE":0,"CLASSIFICATION_TYPE":"U","NORAD_CAT_ID":58381,"ELEMENT_SET_NO":999,"REV_AT_EPOCH":12986,"BSTAR":4.711884e-5,"MEAN_MOTION_DOT":1.036e-5,"MEAN_MOTION_DDOT":0},{"OBJECT_NAME":"TRANSPORTER-11 OBJECT A","OBJECT_ID":"2024-149A","EPOCH":"2026-03-09T17:54:54.302112","MEAN_MOTION":15.31141332,"ECCENTRICITY":0.00031096,"INCLINATION":97.378,"RA_OF_ASC_NODE":149.0949,"ARG_OF_PERICENTER":191.001,"MEAN_ANOMALY":169.1164,"EPHEMERIS_TYPE":0,"CLASSIFICATION_TYPE":"U","NORAD_CAT_ID":60468,"ELEMENT_SET_NO":999,"REV_AT_EPOCH":8683,"BSTAR":0.00036053677,"MEAN_MOTION_DOT":0.00010774,"MEAN_MOTION_DDOT":0}]
